STARLINK-36970          
1 68071U 26042C   26082.22293387  .00226015  00000+0  11146-2 0  9990
2 68071  53.1570 126.9279 0001060  94.4318 265.6826 15.80957036  4224
STARLINK-36972          
1 68072U 26042D   26082.22368381  .00150115  00000+0  74855-3 0  9992
2 68072  53.1571 126.9339 0001212  44.9717 315.1403 15.80942359  4229
STARLINK-37074          
1 68073U 26042E   26082.22217370  .00239849  00000+0  11775-2 0  9997
2 68073  53.1569 126.9231 0001621 122.9973 237.1206 15.81016558  4221
STARLINK-37045          
1 68074U 26042F   26082.16668981 -.00085604  00000+0 -56034-3 0  9997
2 68074  53.1589 127.2834 0001685  86.5087 276.6408 15.75219872  4216
STARLINK-37026          
1 68075U 26042G   26082.30245607  .00104516  00000+0  67681-3 0  9992
2 68075  53.1574 126.7185 0000932  94.6198 265.4929 15.75265138  4233
STARLINK-37023          
1 68076U 26042H   26082.23381910  .00001508  00000+0  13979-4 0  9992
2 68076  53.1579 126.9990 0001980  43.6717 316.4460 15.75304501  4224
STARLINK-37036          
1 68077U 26042J   26082.23414602 -.00065123  00000+0 -42293-3 0  9993
2 68077  53.1575 127.0012 0001578 130.3340 229.7819 15.75290621  4228
STARLINK-36973          
1 68078U 26042K   26082.21767387  .00331409  00000+0  16068-2 0  9994
2 68078  53.1569 126.8924 0000969 139.1088 221.0008 15.81037391  4225
STARLINK-37063          
1 68079U 26042L   26082.21843019  .00096126  00000+0  48388-3 0  9997
2 68079  53.1568 126.8974 0000843 111.5018 248.6095 15.80930138  4229
STARLINK-37051          
1 68080U 26042M   26082.21618557  .00161273  00000+0  80361-3 0  9999
2 68080  53.1576 126.8823 0001133  88.6725 271.4428 15.80922881  4225
STARLINK-37066          
1 68081U 26042N   26082.22473364  .00229289  00000+0  14543-2 0  9996
2 68081  53.1589 126.9377 0001504 103.6930 256.4258 15.75323972  4227
STARLINK-37054          
1 68082U 26042P   26082.21542843  .00210862  00000+0  10410-2 0  9991
2 68082  53.1570 126.8774 0000964  93.0478 267.0655 15.80976175  4220
STARLINK-37065          
1 68083U 26042Q   26082.22927959  .00166603  00000+0  10671-2 0  9990
2 68083  53.1579 126.9681 0001037  91.3750 268.7390 15.75296335  4225
STARLINK-37037          
1 68084U 26042R   26082.21393141  .00237275  00000+0  11686-2 0  9991
2 68084  53.1573 126.8668 0001226  81.7566 278.3596 15.80953281  4223
STARLINK-37068          
1 68085U 26042S   26082.27639912  .00244035  00000+0  12005-2 0  9995
2 68085  53.1571 126.5445 0001064 109.4879 250.6259 15.80959626  4236
STARLINK-37067          
1 68086U 26042T   26082.27565121  .00175577  00000+0  87337-3 0  9991
2 68086  53.1574 126.5398 0001311  78.9552 281.1618 15.80916407  4238
