[{"OBJECT_NAME":"STARLINK-36970","OBJECT_ID":"2026-042C","EPOCH":"2026-03-23T05:21:01.486368","MEAN_MOTION":15.80957036,"ECCENTRICITY":0.000106,"INCLINATION":53.157,"RA_OF_ASC_NODE":126.9279,"ARG_OF_PERICENTER":94.4318,"MEAN_ANOMALY":265.6826,"EPHEMERIS_TYPE":0,"CLASSIFICATION_TYPE":"U","NORAD_CAT_ID":68071,"ELEMENT_SET_NO":999,"REV_AT_EPOCH":422,"BSTAR":0.0011146035,"MEAN_MOTION_DOT":0.00226015,"MEAN_MOTION_DDOT":0},{"OBJECT_NAME":"STARLINK-36972","OBJECT_ID":"2026-042D","EPOCH":"2026-03-23T05:22:06.281184","MEAN_MOTION":15.80942359,"ECCENTRICITY":0.00012121,"INCLINATION":53.1571,"RA_OF_ASC_NODE":126.9339,"ARG_OF_PERICENTER":44.9717,"MEAN_ANOMALY":315.1403,"EPHEMERIS_TYPE":0,"CLASSIFICATION_TYPE":"U","NORAD_CAT_ID":68072,"ELEMENT_SET_NO":999,"REV_AT_EPOCH":422,"BSTAR":0.00074854793,"MEAN_MOTION_DOT":0.00150115,"MEAN_MOTION_DDOT":0},{"OBJECT_NAME":"STARLINK-37074","OBJECT_ID":"2026-042E","EPOCH":"2026-03-23T05:19:55.807680","MEAN_MOTION":15.81016558,"ECCENTRICITY":0.00016216,"INCLINATION":53.1569,"RA_OF_ASC_NODE":126.9231,"ARG_OF_PERICENTER":122.9973,"MEAN_ANOMALY":237.1206,"EPHEMERIS_TYPE":0,"CLASSIFICATION_TYPE":"U","NORAD_CAT_ID":68073,"ELEMENT_SET_NO":999,"REV_AT_EPOCH":422,"BSTAR":0.0011774724,"MEAN_MOTION_DOT":0.00239849,"MEAN_MOTION_DDOT":0},{"OBJECT_NAME":"STARLINK-37045","OBJECT_ID":"2026-042F","EPOCH":"2026-03-23T04:00:01.999584","MEAN_MOTION":15.75219872,"ECCENTRICITY":0.00016858,"INCLINATION":53.1589,"RA_OF_ASC_NODE":127.2834,"ARG_OF_PERICENTER":86.5087,"MEAN_ANOMALY":276.6408,"EPHEMERIS_TYPE":0,"CLASSIFICATION_TYPE":"U","NORAD_CAT_ID":68074,"ELEMENT_SET_NO":999,"REV_AT_EPOCH":421,"BSTAR":-0.00056034001,"MEAN_MOTION_DOT":-0.00085604,"MEAN_MOTION_DDOT":0},{"OBJECT_NAME":"STARLINK-37026","OBJECT_ID":"2026-042G","EPOCH":"2026-03-23T07:15:32.204448","MEAN_MOTION":15.75265138,"ECCENTRICITY":9.325e-5,"INCLINATION":53.1574,"RA_OF_ASC_NODE":126.7185,"ARG_OF_PERICENTER":94.6198,"MEAN_ANOMALY":265.4929,"EPHEMERIS_TYPE":0,"CLASSIFICATION_TYPE":"U","NORAD_CAT_ID":68075,"ELEMENT_SET_NO":999,"REV_AT_EPOCH":423,"BSTAR":0.00067681127,"MEAN_MOTION_DOT":0.00104516,"MEAN_MOTION_DDOT":0},{"OBJECT_NAME":"STARLINK-37023","OBJECT_ID":"2026-042H","EPOCH":"2026-03-23T05:36:41.970240","MEAN_MOTION":15.75304501,"ECCENTRICITY":0.00019802,"INCLINATION":53.1579,"RA_OF_ASC_NODE":126.999,"ARG_OF_PERICENTER":43.6717,"MEAN_ANOMALY":316.446,"EPHEMERIS_TYPE":0,"CLASSIFICATION_TYPE":"U","NORAD_CAT_ID":68076,"ELEMENT_SET_NO":999,"REV_AT_EPOCH":422,"BSTAR":1.3978659e-5,"MEAN_MOTION_DOT":1.508e-5,"MEAN_MOTION_DDOT":0},{"OBJECT_NAME":"STARLINK-37036","OBJECT_ID":"2026-042J","EPOCH":"2026-03-23T05:37:10.216128","MEAN_MOTION":15.75290621,"ECCENTRICITY":0.00015781,"INCLINATION":53.1575,"RA_OF_ASC_NODE":127.0012,"ARG_OF_PERICENTER":130.334,"MEAN_ANOMALY":229.7819,"EPHEMERIS_TYPE":0,"CLASSIFICATION_TYPE":"U","NORAD_CAT_ID":68077,"ELEMENT_SET_NO":999,"REV_AT_EPOCH":422,"BSTAR":-0.00042293388,"MEAN_MOTION_DOT":-0.00065123,"MEAN_MOTION_DDOT":0},{"OBJECT_NAME":"STARLINK-36973","OBJECT_ID":"2026-042K","EPOCH":"2026-03-23T05:13:27.022368","MEAN_MOTION":15.81037391,"ECCENTRICITY":9.69e-5,"INCLINATION":53.1569,"RA_OF_ASC_NODE":126.8924,"ARG_OF_PERICENTER":139.1088,"MEAN_ANOMALY":221.0008,"EPHEMERIS_TYPE":0,"CLASSIFICATION_TYPE":"U","NORAD_CAT_ID":68078,"ELEMENT_SET_NO":999,"REV_AT_EPOCH":422,"BSTAR":0.001606778,"MEAN_MOTION_DOT":0.00331409,"MEAN_MOTION_DDOT":0},{"OBJECT_NAME":"STARLINK-37063","OBJECT_ID":"2026-042L","EPOCH":"2026-03-23T05:14:32.368416","MEAN_MOTION":15.80930138,"ECCENTRICITY":8.439e-5,"INCLINATION":53.1568,"RA_OF_ASC_NODE":126.8974,"ARG_OF_PERICENTER":111.5018,"MEAN_ANOMALY":248.6095,"EPHEMERIS_TYPE":0,"CLASSIFICATION_TYPE":"U","NORAD_CAT_ID":68079,"ELEMENT_SET_NO":999,"REV_AT_EPOCH":422,"BSTAR":0.00048388278,"MEAN_MOTION_DOT":0.00096126,"MEAN_MOTION_DDOT":0},{"OBJECT_NAME":"STARLINK-37051","OBJECT_ID":"2026-042M","EPOCH":"2026-03-23T05:11:18.433248","MEAN_MOTION":15.80922881,"ECCENTRICITY":0.00011331,"INCLINATION":53.1576,"RA_OF_ASC_NODE":126.8823,"ARG_OF_PERICENTER":88.6725,"MEAN_ANOMALY":271.4428,"EPHEMERIS_TYPE":0,"CLASSIFICATION_TYPE":"U","NORAD_CAT_ID":68080,"ELEMENT_SET_NO":999,"REV_AT_EPOCH":422,"BSTAR":0.00080360614,"MEAN_MOTION_DOT":0.00161273,"MEAN_MOTION_DDOT":0},{"OBJECT_NAME":"STARLINK-37066","OBJECT_ID":"2026-042N","EPOCH":"2026-03-23T05:23:36.986496","MEAN_MOTION":15.75323972,"ECCENTRICITY":0.00015042,"INCLINATION":53.1589,"RA_OF_ASC_NODE":126.9377,"ARG_OF_PERICENTER":103.693,"MEAN_ANOMALY":256.4258,"EPHEMERIS_TYPE":0,"CLASSIFICATION_TYPE":"U","NORAD_CAT_ID":68081,"ELEMENT_SET_NO":999,"REV_AT_EPOCH":422,"BSTAR":0.001454339,"MEAN_MOTION_DOT":0.00229289,"MEAN_MOTION_DDOT":0},{"OBJECT_NAME":"STARLINK-37054","OBJECT_ID":"2026-042P","EPOCH":"2026-03-23T05:10:13.016352","MEAN_MOTION":15.80976175,"ECCENTRICITY":9.645e-5,"INCLINATION":53.157,"RA_OF_ASC_NODE":126.8774,"ARG_OF_PERICENTER":93.0478,"MEAN_ANOMALY":267.0655,"EPHEMERIS_TYPE":0,"CLASSIFICATION_TYPE":"U","NORAD_CAT_ID":68082,"ELEMENT_SET_NO":999,"REV_AT_EPOCH":422,"BSTAR":0.0010410284,"MEAN_MOTION_DOT":0.00210862,"MEAN_MOTION_DDOT":0},{"OBJECT_NAME":"STARLINK-37065","OBJECT_ID":"2026-042Q","EPOCH":"2026-03-23T05:30:09.756576","MEAN_MOTION":15.75296335,"ECCENTRICITY":0.00010375,"INCLINATION":53.1579,"RA_OF_ASC_NODE":126.9681,"ARG_OF_PERICENTER":91.375,"MEAN_ANOMALY":268.739,"EPHEMERIS_TYPE":0,"CLASSIFICATION_TYPE":"U","NORAD_CAT_ID":68083,"ELEMENT_SET_NO":999,"REV_AT_EPOCH":422,"BSTAR":0.001067052,"MEAN_MOTION_DOT":0.00166603,"MEAN_MOTION_DDOT":0},{"OBJECT_NAME":"STARLINK-37037","OBJECT_ID":"2026-042R","EPOCH":"2026-03-23T05:08:03.673824","MEAN_MOTION":15.80953281,"ECCENTRICITY":0.00012263,"INCLINATION":53.1573,"RA_OF_ASC_NODE":126.8668,"ARG_OF_PERICENTER":81.7566,"MEAN_ANOMALY":278.3596,"EPHEMERIS_TYPE":0,"CLASSIFICATION_TYPE":"U","NORAD_CAT_ID":68084,"ELEMENT_SET_NO":999,"REV_AT_EPOCH":422,"BSTAR":0.0011686259,"MEAN_MOTION_DOT":0.00237275,"MEAN_MOTION_DDOT":0},{"OBJECT_NAME":"STARLINK-37068","OBJECT_ID":"2026-042S","EPOCH":"2026-03-23T06:38:00.883968","MEAN_MOTION":15.80959626,"ECCENTRICITY":0.00010647,"INCLINATION":53.1571,"RA_OF_ASC_NODE":126.5445,"ARG_OF_PERICENTER":109.4879,"MEAN_ANOMALY":250.6259,"EPHEMERIS_TYPE":0,"CLASSIFICATION_TYPE":"U","NORAD_CAT_ID":68085,"ELEMENT_SET_NO":999,"REV_AT_EPOCH":423,"BSTAR":0.0012005207,"MEAN_MOTION_DOT":0.00244035,"MEAN_MOTION_DDOT":0},{"OBJECT_NAME":"STARLINK-37067","OBJECT_ID":"2026-042T","EPOCH":"2026-03-23T06:36:56.264544","MEAN_MOTION":15.80916407,"ECCENTRICITY":0.00013114,"INCLINATION":53.1574,"RA_OF_ASC_NODE":126.5398,"ARG_OF_PERICENTER":78.9552,"MEAN_ANOMALY":281.1618,"EPHEMERIS_TYPE":0,"CLASSIFICATION_TYPE":"U","NORAD_CAT_ID":68086,"ELEMENT_SET_NO":999,"REV_AT_EPOCH":423,"BSTAR":0.00087337479,"MEAN_MOTION_DOT":0.00175577,"MEAN_MOTION_DDOT":0}]
